ESEO                    
1 43792U 18099AL  26068.65529582  .00002831  00000+0  20935-3 0  9991
2 43792  97.4113 110.2601 0011063 317.6000  42.4371 15.03914518396849
STARLINK-5720           
1 55619U 23020BC  26068.17075669 -.00000783  00000+0 -42936-4 0  9993
2 55619  43.0063 354.2756 0001083 271.0905  88.9814 15.02528619168992
